OBJECT_NAME,OBJECT_ID,EPOCH,MEAN_MOTION,ECCENTRICITY,INCLINATION,RA_OF_ASC_NODE,ARG_OF_PERICENTER,MEAN_ANOMALY,EPHEMERIS_TYPE,CLASSIFICATION_TYPE,NORAD_CAT_ID,ELEMENT_SET_NO,REV_AT_EPOCH,BSTAR,MEAN_MOTION_DOT,MEAN_MOTION_DDOT
STARLINK-36285,2026-068Y,2026-07-02T17:52:12.549216,15.34388930,.0001815,53.1599,314.6165,83.4793,276.6416,0,U,68530,999,1456,.90318E-3,.30252E-3,0
STARLINK-36294,2026-068Z,2026-07-02T18:01:18.190272,15.34371023,.0001751,53.1611,314.6546,71.0683,289.0509,0,U,68531,999,1456,.76672E-3,.25593E-3,0
STARLINK-36249,2026-068AA,2026-07-02T15:08:01.780224,15.34409259,.0003248,53.1592,313.2039,81.4213,278.7158,0,U,68532,999,1457,.81497E-3,.27269E-3,0
STARLINK-36252,2026-068AB,2026-07-02T18:06:33.282432,15.34360464,.0000942,53.1604,312.5473,120.2174,239.8922,0,U,68533,999,1459,.91288E-3,.30554E-3,0
STARLINK-36299,2026-068AC,2026-07-02T18:09:34.604928,15.34390423,.0001529,53.1596,312.5647,65.8406,294.2756,0,U,68534,999,1459,.11892E-2,.40005E-3,0
STARLINK-37234,2026-068AD,2026-07-02T17:48:18.964224,15.49342202,.0000684,53.1595,309.6185,116.5625,243.5454,0,U,68535,999,1463,.10283E-2,.57229E-3,0
STARLINK-37173,2026-068AE,2026-07-02T17:43:13.222272,15.49357788,.000088,53.1577,309.6004,98.5293,261.5816,0,U,68536,999,1463,.13463E-2,.75281E-3,0
STARLINK-37326,2026-070A,2026-07-02T17:02:28.701024,15.34392766,.0001611,53.1580,186.9942,83.0926,277.0260,0,U,68542,999,1418,.71594E-3,.23884E-3,0
STARLINK-36308,2026-070B,2026-07-02T16:59:26.859264,15.34390672,.0001528,53.1569,186.9867,79.8423,280.2752,0,U,68543,999,1418,.69086E-4,.1958E-4,0
STARLINK-37263,2026-070C,2026-07-02T16:53:24.172800,15.34393854,.0001035,53.1568,186.9619,82.9994,277.1126,0,U,68544,999,1418,.60283E-3,.20042E-3,0
STARLINK-37289,2026-070D,2026-07-02T16:56:25.116000,15.34400243,.0001679,53.1566,186.9741,77.0348,283.0842,0,U,68545,999,1418,.10843E-2,.36438E-3,0
STARLINK-37290,2026-070E,2026-07-02T16:50:21.919776,15.34416752,.0002076,53.1578,186.9320,89.7090,270.4150,0,U,68546,999,1418,.3909E-3,.12861E-3,0
STARLINK-37245,2026-070F,2026-07-02T07:18:29.803104,15.34413724,.0001019,53.1566,188.7335,90.1566,269.9553,0,U,68547,999,1412,.52797E-3,.17512E-3,0
STARLINK-37145,2026-070G,2026-07-02T07:24:33.126336,15.34265235,.0001121,53.1557,188.7668,110.4908,249.6214,0,U,68548,999,1412,-.51236E-2,-.168936E-2,0
STARLINK-36204,2026-070H,2026-07-02T07:15:27.859392,15.34398635,.0001197,53.1574,188.7256,92.5957,267.5182,0,U,68549,999,1412,.98123E-3,.3292E-3,0
STARLINK-36304,2026-070J,2026-07-02T07:09:23.571072,15.34365970,.0001356,53.1569,188.6966,96.9025,263.2131,0,U,68550,999,1412,.51572E-3,.17069E-3,0
STARLINK-37288,2026-070K,2026-07-02T07:06:22.358304,15.34397365,.0001117,53.1572,188.6830,83.9700,276.1430,0,U,68551,999,1412,.91957E-3,.30818E-3,0
STARLINK-37295,2026-070L,2026-07-02T07:12:26.020224,15.34401858,.0001108,53.1573,188.7119,79.8462,280.2665,0,U,68552,999,1412,.10014E-2,.3361E-3,0
STARLINK-37254,2026-070M,2026-07-02T17:53:52.209024,15.34399244,.0001315,53.1582,186.5074,82.5662,277.5490,0,U,68553,999,1419,.80415E-3,.2689E-3,0
STARLINK-37255,2026-070N,2026-07-02T17:50:49.849728,15.34402792,.0001751,53.1578,186.4984,69.2654,290.8536,0,U,68554,999,1419,.65181E-3,.21712E-3,0
STARLINK-37146,2026-070P,2026-07-02T07:00:18.762048,15.34400621,.0001315,53.1576,188.6494,103.7473,256.3676,0,U,68555,999,1412,.10007E-2,.33587E-3,0
STARLINK-37144,2026-070Q,2026-07-02T17:44:45.926016,15.34393500,.0001386,53.1573,186.4564,100.6605,259.4554,0,U,68556,999,1419,.62116E-3,.20664E-3,0
STARLINK-37210,2026-070R,2026-07-02T17:47:47.334048,15.34421372,.0001801,53.1581,186.4765,89.9794,270.1415,0,U,68557,999,1419,.9857E-3,.33097E-3,0
STARLINK-37227,2026-070S,2026-07-02T17:41:44.316672,15.34392339,.0001268,53.1570,186.4539,92.8849,267.2299,0,U,68558,999,1419,.6014E-3,.19992E-3,0
STARLINK-37294,2026-070T,2026-07-02T17:38:42.456768,15.34394385,.0001344,53.1584,186.4419,92.9898,267.1258,0,U,68559,999,1419,.60404E-3,.20083E-3,0
STARLINK-37291,2026-070U,2026-07-02T17:35:40.646112,15.34402255,.0001387,53.1580,186.4282,84.7533,275.3627,0,U,68560,999,1419,.44224E-3,.14596E-3,0
STARLINK-37114,2026-070V,2026-07-02T17:32:38.920992,15.34398309,.0001253,53.1588,186.4115,79.0011,281.1133,0,U,68561,999,1419,.70259E-3,.23435E-3,0
STARLINK-37233,2026-070W,2026-07-02T17:26:35.492352,15.34389233,.0001417,53.1575,186.3654,89.3476,270.7688,0,U,68562,999,1419,.51995E-3,.17226E-3,0
STARLINK-36238,2026-070X,2026-07-02T06:33:02.600064,15.34400569,.0001811,53.1587,188.5287,76.7810,283.3395,0,U,68563,999,1412,.55135E-3,.18298E-3,0
STARLINK-37008,2026-070Y,2026-07-02T17:23:33.252288,15.34396773,.000128,53.1583,186.3551,93.5870,266.5279,0,U,68564,999,1419,.62345E-3,.20744E-3,0
