STARLINK-36285          
1 68530U 26068Y   26183.74458969  .00030252  00000+0  90318-3 0  9991
2 68530  53.1599 314.6165 0001815  83.4793 276.6416 15.34388930 14563
STARLINK-36294          
1 68531U 26068Z   26183.75090498  .00025593  00000+0  76672-3 0  9991
2 68531  53.1611 314.6546 0001751  71.0683 289.0509 15.34371023 14568
STARLINK-36249          
1 68532U 26068AA  26183.63057616  .00027269  00000+0  81497-3 0  9997
2 68532  53.1592 313.2039 0003248  81.4213 278.7158 15.34409259 14575
STARLINK-36252          
1 68533U 26068AB  26183.75455188  .00030554  00000+0  91288-3 0  9997
2 68533  53.1604 312.5473 0000942 120.2174 239.8922 15.34360464 14593
STARLINK-36299          
1 68534U 26068AC  26183.75665052  .00040005  00000+0  11892-2 0  9995
2 68534  53.1596 312.5647 0001529  65.8406 294.2756 15.34390423 14599
STARLINK-37234          
1 68535U 26068AD  26183.74188616  .00057229  00000+0  10283-2 0  9990
2 68535  53.1595 309.6185 0000684 116.5625 243.5454 15.49342202 14636
STARLINK-37173          
1 68536U 26068AE  26183.73834748  .00075281  00000+0  13463-2 0  9995
2 68536  53.1577 309.6004 0000880  98.5293 261.5816 15.49357788 14632
STARLINK-37326          
1 68542U 26070A   26183.71005441  .00023884  00000+0  71594-3 0  9995
2 68542  53.1580 186.9942 0001611  83.0926 277.0260 15.34392766 14189
STARLINK-36308          
1 68543U 26070B   26183.70794976  .00001958  00000+0  69086-4 0  9995
2 68543  53.1569 186.9867 0001528  79.8423 280.2752 15.34390672 14181
STARLINK-37263          
1 68544U 26070C   26183.70375200  .00020042  00000+0  60283-3 0  9995
2 68544  53.1568 186.9619 0001035  82.9994 277.1126 15.34393854 14182
STARLINK-37289          
1 68545U 26070D   26183.70584625  .00036438  00000+0  10843-2 0  9991
2 68545  53.1566 186.9741 0001679  77.0348 283.0842 15.34400243 14181
STARLINK-37290          
1 68546U 26070E   26183.70164259  .00012861  00000+0  39090-3 0  9999
2 68546  53.1578 186.9320 0002076  89.7090 270.4150 15.34416752 14188
STARLINK-37245          
1 68547U 26070F   26183.30451161  .00017512  00000+0  52797-3 0  9994
2 68547  53.1566 188.7335 0001019  90.1566 269.9553 15.34413724 14122
STARLINK-37145          
1 68548U 26070G   26183.30871674 -.00168936  00000+0 -51236-2 0  9995
2 68548  53.1557 188.7668 0001121 110.4908 249.6214 15.34265235 14123
STARLINK-36204          
1 68549U 26070H   26183.30240578  .00032920  00000+0  98123-3 0  9997
2 68549  53.1574 188.7256 0001197  92.5957 267.5182 15.34398635 14127
STARLINK-36304          
1 68550U 26070J   26183.29818948  .00017069  00000+0  51572-3 0  9993
2 68550  53.1569 188.6966 0001356  96.9025 263.2131 15.34365970 14124
STARLINK-37288          
1 68551U 26070K   26183.29609211  .00030818  00000+0  91957-3 0  9993
2 68551  53.1572 188.6830 0001117  83.9700 276.1430 15.34397365 14128
STARLINK-37295          
1 68552U 26070L   26183.30030116  .00033610  00000+0  10014-2 0  9995
2 68552  53.1573 188.7119 0001108  79.8462 280.2665 15.34401858 14129
STARLINK-37254          
1 68553U 26070M   26183.74574316  .00026890  00000+0  80415-3 0  9994
2 68553  53.1582 186.5074 0001315  82.5662 277.5490 15.34399244 14196
STARLINK-37255          
1 68554U 26070N   26183.74363252  .00021712  00000+0  65181-3 0  9991
2 68554  53.1578 186.4984 0001751  69.2654 290.8536 15.34402792 14190
STARLINK-37146          
1 68555U 26070P   26183.29188382  .00033587  00000+0  10007-2 0  9990
2 68555  53.1576 188.6494 0001315 103.7473 256.3676 15.34400621 14122
STARLINK-37144          
1 68556U 26070Q   26183.73942044  .00020664  00000+0  62116-3 0  9994
2 68556  53.1573 186.4564 0001386 100.6605 259.4554 15.34393500 14198
STARLINK-37210          
1 68557U 26070R   26183.74152007  .00033097  00000+0  98570-3 0  9995
2 68557  53.1581 186.4765 0001801  89.9794 270.1415 15.34421372 14196
STARLINK-37227          
1 68558U 26070S   26183.73731848  .00019992  00000+0  60140-3 0  9991
2 68558  53.1570 186.4539 0001268  92.8849 267.2299 15.34392339 14192
STARLINK-37294          
1 68559U 26070T   26183.73521362  .00020083  00000+0  60404-3 0  9996
2 68559  53.1584 186.4419 0001344  92.9898 267.1258 15.34394385 14192
STARLINK-37291          
1 68560U 26070U   26183.73310933  .00014596  00000+0  44224-3 0  9992
2 68560  53.1580 186.4282 0001387  84.7533 275.3627 15.34402255 14197
STARLINK-37114          
1 68561U 26070V   26183.73100603  .00023435  00000+0  70259-3 0  9993
2 68561  53.1588 186.4115 0001253  79.0011 281.1133 15.34398309 14192
STARLINK-37233          
1 68562U 26070W   26183.72679968  .00017226  00000+0  51995-3 0  9995
2 68562  53.1575 186.3654 0001417  89.3476 270.7688 15.34389233 14192
STARLINK-36238          
1 68563U 26070X   26183.27294676  .00018298  00000+0  55135-3 0  9995
2 68563  53.1587 188.5287 0001811  76.7810 283.3395 15.34400569 14126
STARLINK-37008          
1 68564U 26070Y   26183.72469042  .00020744  00000+0  62345-3 0  9997
2 68564  53.1583 186.3551 0001280  93.5870 266.5279 15.34396773 14198
